[{"OBJECT_NAME":"MARAFON-D GVM","OBJECT_ID":"2024-039V","EPOCH":"2026-03-09T22:15:16.896096","MEAN_MOTION":14.45961623,"ECCENTRICITY":0.00149761,"INCLINATION":88.9816,"RA_OF_ASC_NODE":295.8376,"ARG_OF_PERICENTER":319.0552,"MEAN_ANOMALY":40.9527,"EPHEMERIS_TYPE":0,"CLASSIFICATION_TYPE":"U","NORAD_CAT_ID":59072,"ELEMENT_SET_NO":999,"REV_AT_EPOCH":10684,"BSTAR":8.0103078e-5,"MEAN_MOTION_DOT":3.0e-6,"MEAN_MOTION_DDOT":0},{"OBJECT_NAME":"COSMOS 2251 DEB","OBJECT_ID":"1993-036KN","EPOCH":"2026-03-09T08:22:07.477824","MEAN_MOTION":14.40438848,"ECCENTRICITY":0.00572667,"INCLINATION":74.0403,"RA_OF_ASC_NODE":183.7592,"ARG_OF_PERICENTER":241.2537,"MEAN_ANOMALY":118.2858,"EPHEMERIS_TYPE":0,"CLASSIFICATION_TYPE":"U","NORAD_CAT_ID":34117,"ELEMENT_SET_NO":999,"REV_AT_EPOCH":89370,"BSTAR":0.00088884213,"MEAN_MOTION_DOT":2.854e-5,"MEAN_MOTION_DDOT":0}]
